[{"OBJECT_NAME":"STARLINK-36494","OBJECT_ID":"2026-002AC","EPOCH":"2026-03-09T23:37:36.798816","MEAN_MOTION":15.27602644,"ECCENTRICITY":0.00011543,"INCLINATION":42.9993,"RA_OF_ASC_NODE":323.625,"ARG_OF_PERICENTER":263.8982,"MEAN_ANOMALY":96.1738,"EPHEMERIS_TYPE":0,"CLASSIFICATION_TYPE":"U","NORAD_CAT_ID":67331,"ELEMENT_SET_NO":999,"REV_AT_EPOCH":1128,"BSTAR":0.0012146223,"MEAN_MOTION_DOT":0.00033336,"MEAN_MOTION_DDOT":0},{"OBJECT_NAME":"OBJECT BE","OBJECT_ID":"2025-313BE","EPOCH":"2026-03-09T16:43:59.380320","MEAN_MOTION":15.29801687,"ECCENTRICITY":0.00072083,"INCLINATION":97.3989,"RA_OF_ASC_NODE":145.3568,"ARG_OF_PERICENTER":335.3714,"MEAN_ANOMALY":24.7181,"EPHEMERIS_TYPE":0,"CLASSIFICATION_TYPE":"U","NORAD_CAT_ID":67482,"ELEMENT_SET_NO":999,"REV_AT_EPOCH":797,"BSTAR":0.0026504328,"MEAN_MOTION_DOT":0.00077178,"MEAN_MOTION_DDOT":0}]
